*******************************************************************************
Ephemeris / WWW_USER Mon Mar 24 07:45:57 2025 Pasadena, USA      / Horizons    
*******************************************************************************
Target body name: (2018 TC)                       {source: JPL#10}
Center body name: Earth (399)                     {source: DE441}
Center-site name: Mauna Kea
*******************************************************************************
Start time      : A.D. 2018-Sep-13 04:36:00.0000 UT      
Stop  time      : A.D. 2018-Sep-13 15:59:00.0000 UT      
Step-size       : 1 minutes
*******************************************************************************
Target pole/equ : undefined
Target radii    : undefined                                                    
Center geodetic : 204.5278, 19.8260847, 4.21024   {E-lon(deg),Lat(deg),Alt(km)}
Center cylindric: 204.5278, 6006.35451, 2151.0229 {E-lon(deg),Dxy(km),Dz(km)}
Center pole/equ : ITRF93                          {East-longitude positive}
Center radii    : 6378.137, 6378.137, 6356.752 km {Equator_a, b, pole_c}       
Target primary  : Sun
Vis. interferer : MOON (R_eq= 1737.400) km        {source: DE441}
Rel. light bend : Sun                             {source: DE441}
Rel. lght bnd GM: 1.3271E+11 km^3/s^2                                          
Small-body perts: Yes                             {source: SB441-N16}
Atmos refraction: NO (AIRLESS)
RA format       : HMS
Time format     : CAL 
Calendar mode   : Mixed Julian/Gregorian
RTS-only print  : NO       
EOP file        : eop.250321.p250617                                           
EOP coverage    : DATA-BASED 1962-JAN-20 TO 2025-MAR-21. PREDICTS-> 2025-JUN-16
Units conversion: 1 au= 149597870.700 km, c= 299792.458 km/s, 1 day= 86400.0 s 
Table cut-offs 1: Elevation (-90.0deg=NO ),Airmass (>38.000=NO), Daylight (YES)
Table cut-offs 2: Solar elongation (  0.0,180.0=NO ),Local Hour Angle( 0.0=NO )
Table cut-offs 3: RA/DEC angular rate (     0.0=NO )                           
*******************************************************************************
Initial IAU76/J2000 heliocentric ecliptic osculating elements (au, days, deg.):
  EPOCH=  2458399.5 ! 2018-Oct-08.00 (TDB)         Residual RMS= .20211        
   EC= .2253304451868516   QR= .9525668516843322   TP= 2458354.2554697809      
   OM= 188.9146441926015   W=  135.2493409557404   IN= 3.631837316097226       
  Equivalent ICRF heliocentric cartesian coordinates (au, au/d):
   X= 9.874490534016482E-01  Y= 2.414303737329446E-01  Z= 9.746991415829437E-02
  VX=-1.955204385424240E-03 VY= 1.722364762632024E-02 VZ= 6.197883797821973E-03
Asteroid physical parameters (km, seconds, rotational period in hours):        
   GM= n.a.                RAD= n.a.               ROTPER= n.a.                
   H= 26.6                 G= .150                 B-V= n.a.                   
                           ALBEDO= n.a.            STYP= n.a.                  
*******************************************************************************
 Date__(UT)__HR:MN     R.A._________(ICRF)_________DEC
******************************************************
$$SOE
 2018-Sep-13 14:51     14 20 18.498493 +05 16 09.90618
 2018-Sep-13 14:52     14 20 18.577403 +05 16 10.16572
 2018-Sep-13 14:53     14 20 18.656239 +05 16 10.42551
 2018-Sep-13 14:54     14 20 18.735000 +05 16 10.68554
 2018-Sep-13 14:55     14 20 18.813685 +05 16 10.94583
 2018-Sep-13 14:56 A   14 20 18.892294 +05 16 11.20637
 2018-Sep-13 14:57 A   14 20 18.970825 +05 16 11.46716
 2018-Sep-13 14:58 A   14 20 19.049279 +05 16 11.72820
 2018-Sep-13 14:59 A   14 20 19.127653 +05 16 11.98949
 2018-Sep-13 15:00 A   14 20 19.205949 +05 16 12.25102
 2018-Sep-13 15:01 A   14 20 19.284164 +05 16 12.51280
 2018-Sep-13 15:02 A   14 20 19.362298 +05 16 12.77483
 2018-Sep-13 15:03 A   14 20 19.440351 +05 16 13.03711
 2018-Sep-13 15:04 A   14 20 19.518321 +05 16 13.29963
 2018-Sep-13 15:05 A   14 20 19.596209 +05 16 13.56240
 2018-Sep-13 15:06 A   14 20 19.674012 +05 16 13.82541
 2018-Sep-13 15:07 A   14 20 19.751731 +05 16 14.08867
 2018-Sep-13 15:08 A   14 20 19.829365 +05 16 14.35218
 2018-Sep-13 15:09 A   14 20 19.906913 +05 16 14.61592
 2018-Sep-13 15:10 A   14 20 19.984374 +05 16 14.87991
 2018-Sep-13 15:11 A   14 20 20.061748 +05 16 15.14415
 2018-Sep-13 15:12 A   14 20 20.139033 +05 16 15.40863
 2018-Sep-13 15:13 A   14 20 20.216230 +05 16 15.67335
 2018-Sep-13 15:14 A   14 20 20.293337 +05 16 15.93831
 2018-Sep-13 15:15 A   14 20 20.370354 +05 16 16.20351
 2018-Sep-13 15:16 A   14 20 20.447280 +05 16 16.46895
 2018-Sep-13 15:17 A   14 20 20.524114 +05 16 16.73463
 2018-Sep-13 15:18 A   14 20 20.600856 +05 16 17.00056
 2018-Sep-13 15:19 A   14 20 20.677505 +05 16 17.26672
 2018-Sep-13 15:20 A   14 20 20.754060 +05 16 17.53312
 2018-Sep-13 15:21 A   14 20 20.830521 +05 16 17.79976
 2018-Sep-13 15:22 N   14 20 20.906886 +05 16 18.06663
 2018-Sep-13 15:23 N   14 20 20.983155 +05 16 18.33374
 2018-Sep-13 15:24 N   14 20 21.059328 +05 16 18.60109
 2018-Sep-13 15:25 N   14 20 21.135403 +05 16 18.86868
 2018-Sep-13 15:26 N   14 20 21.211381 +05 16 19.13650
 2018-Sep-13 15:27 N   14 20 21.287260 +05 16 19.40456
 2018-Sep-13 15:28 N   14 20 21.363039 +05 16 19.67284
 2018-Sep-13 15:29 N   14 20 21.438719 +05 16 19.94137
 2018-Sep-13 15:30 N   14 20 21.514297 +05 16 20.21012
 2018-Sep-13 15:31 N   14 20 21.589774 +05 16 20.47911
 2018-Sep-13 15:32 N   14 20 21.665150 +05 16 20.74833
 2018-Sep-13 15:33 N   14 20 21.740422 +05 16 21.01779
 2018-Sep-13 15:34 N   14 20 21.815591 +05 16 21.28747
 2018-Sep-13 15:35 N   14 20 21.890655 +05 16 21.55738
 2018-Sep-13 15:36 N   14 20 21.965615 +05 16 21.82753
 2018-Sep-13 15:37 N   14 20 22.040470 +05 16 22.09790
 2018-Sep-13 15:38 N   14 20 22.115218 +05 16 22.36850
 2018-Sep-13 15:39 N   14 20 22.189859 +05 16 22.63933
 2018-Sep-13 15:40 N   14 20 22.264393 +05 16 22.91039
 2018-Sep-13 15:41 N   14 20 22.338819 +05 16 23.18167
 2018-Sep-13 15:42 N   14 20 22.413136 +05 16 23.45318
 2018-Sep-13 15:43 N   14 20 22.487344 +05 16 23.72491
 2018-Sep-13 15:44 N   14 20 22.561441 +05 16 23.99687
 2018-Sep-13 15:45 N   14 20 22.635427 +05 16 24.26906
 2018-Sep-13 15:46 N   14 20 22.709302 +05 16 24.54146
 2018-Sep-13 15:47 C   14 20 22.783065 +05 16 24.81409
 2018-Sep-13 15:48 C   14 20 22.856716 +05 16 25.08695
 2018-Sep-13 15:49 C   14 20 22.930252 +05 16 25.36002
 2018-Sep-13 15:50 C   14 20 23.003675 +05 16 25.63332
 2018-Sep-13 15:51 C   14 20 23.076983 +05 16 25.90683
 2018-Sep-13 15:52 C   14 20 23.150176 +05 16 26.18057
 2018-Sep-13 15:53 C   14 20 23.223252 +05 16 26.45452
 2018-Sep-13 15:54 C   14 20 23.296213 +05 16 26.72869
 2018-Sep-13 15:55 C   14 20 23.369055 +05 16 27.00309
 2018-Sep-13 15:56 C   14 20 23.441780 +05 16 27.27769
 2018-Sep-13 15:57 C   14 20 23.514387 +05 16 27.55252
 2018-Sep-13 15:58 C   14 20 23.586874 +05 16 27.82756
 2018-Sep-13 15:59 C   14 20 23.659242 +05 16 28.10281
